CCSDS_OMM_VERS = 2.0
CREATION_DATE  = 
ORIGINATOR     = 

OBJECT_NAME    = CORAL
OBJECT_ID      = 1998-067YA
CENTER_NAME    = EARTH
REF_FRAME      = TEME
TIME_SYSTEM    = UTC
MEAN_ELEMENT_THEORY = SGP/SGP4

EPOCH          = 2026-04-03T19:18:37.993824
MEAN_MOTION    = 15.58915220
ECCENTRICITY   = .0013485
INCLINATION    = 51.6284
RA_OF_ASC_NODE = 305.8684
ARG_OF_PERICENTER = 268.4789
MEAN_ANOMALY   = 91.4659

EPHEMERIS_TYPE = 0
CLASSIFICATION_TYPE = U
NORAD_CAT_ID   = 67684
ELEMENT_SET_NO = 999
REV_AT_EPOCH   = 870
BSTAR          = .16648E-2
MEAN_MOTION_DOT = .133892E-2
MEAN_MOTION_DDOT = 0

CCSDS_OMM_VERS = 2.0
CREATION_DATE  = 
ORIGINATOR     = 

OBJECT_NAME    = GXIBA-1
OBJECT_ID      = 1998-067YB
CENTER_NAME    = EARTH
REF_FRAME      = TEME
TIME_SYSTEM    = UTC
MEAN_ELEMENT_THEORY = SGP/SGP4

EPOCH          = 2026-04-03T19:31:14.978784
MEAN_MOTION    = 15.54660633
ECCENTRICITY   = .001244
INCLINATION    = 51.6298
RA_OF_ASC_NODE = 306.6778
ARG_OF_PERICENTER = 275.1790
MEAN_ANOMALY   = 84.7781

EPHEMERIS_TYPE = 0
CLASSIFICATION_TYPE = U
NORAD_CAT_ID   = 67685
ELEMENT_SET_NO = 999
REV_AT_EPOCH   = 869
BSTAR          = .11093E-2
MEAN_MOTION_DOT = .75333E-3
MEAN_MOTION_DDOT = 0

CCSDS_OMM_VERS = 2.0
CREATION_DATE  = 
ORIGINATOR     = 

OBJECT_NAME    = UITMSAT-2
OBJECT_ID      = 1998-067YC
CENTER_NAME    = EARTH
REF_FRAME      = TEME
TIME_SYSTEM    = UTC
MEAN_ELEMENT_THEORY = SGP/SGP4

EPOCH          = 2026-04-03T19:04:30.994752
MEAN_MOTION    = 15.55773967
ECCENTRICITY   = .0009468
INCLINATION    = 51.6307
RA_OF_ASC_NODE = 306.5559
ARG_OF_PERICENTER = 249.4305
MEAN_ANOMALY   = 110.5671

EPHEMERIS_TYPE = 0
CLASSIFICATION_TYPE = U
NORAD_CAT_ID   = 67686
ELEMENT_SET_NO = 999
REV_AT_EPOCH   = 869
BSTAR          = .12028E-2
MEAN_MOTION_DOT = .85147E-3
MEAN_MOTION_DDOT = 0

CCSDS_OMM_VERS = 2.0
CREATION_DATE  = 
ORIGINATOR     = 

OBJECT_NAME    = HMU-SAT2
OBJECT_ID      = 1998-067YD
CENTER_NAME    = EARTH
REF_FRAME      = TEME
TIME_SYSTEM    = UTC
MEAN_ELEMENT_THEORY = SGP/SGP4

EPOCH          = 2026-04-03T21:12:22.160448
MEAN_MOTION    = 15.54393032
ECCENTRICITY   = .0008999
INCLINATION    = 51.6307
RA_OF_ASC_NODE = 306.3995
ARG_OF_PERICENTER = 252.1797
MEAN_ANOMALY   = 107.8212

EPHEMERIS_TYPE = 0
CLASSIFICATION_TYPE = U
NORAD_CAT_ID   = 67687
ELEMENT_SET_NO = 999
REV_AT_EPOCH   = 862
BSTAR          = .10661E-2
MEAN_MOTION_DOT = .71531E-3
MEAN_MOTION_DDOT = 0

CCSDS_OMM_VERS = 2.0
CREATION_DATE  = 
ORIGINATOR     = 

OBJECT_NAME    = LEOPARD
OBJECT_ID      = 1998-067YE
CENTER_NAME    = EARTH
REF_FRAME      = TEME
TIME_SYSTEM    = UTC
MEAN_ELEMENT_THEORY = SGP/SGP4

EPOCH          = 2026-04-03T19:16:42.254112
MEAN_MOTION    = 15.55259646
ECCENTRICITY   = .0009237
INCLINATION    = 51.6306
RA_OF_ASC_NODE = 306.6128
ARG_OF_PERICENTER = 249.5445
MEAN_ANOMALY   = 110.4555

EPHEMERIS_TYPE = 0
CLASSIFICATION_TYPE = U
NORAD_CAT_ID   = 67688
ELEMENT_SET_NO = 999
REV_AT_EPOCH   = 861
BSTAR          = .10982E-2
MEAN_MOTION_DOT = .76143E-3
MEAN_MOTION_DDOT = 0

CCSDS_OMM_VERS = 2.0
CREATION_DATE  = 
ORIGINATOR     = 

OBJECT_NAME    = CREW DRAGON 12
OBJECT_ID      = 2026-031A
CENTER_NAME    = EARTH
REF_FRAME      = TEME
TIME_SYSTEM    = UTC
MEAN_ELEMENT_THEORY = SGP/SGP4

EPOCH          = 2026-04-03T21:00:58.615488
MEAN_MOTION    = 15.48754008
ECCENTRICITY   = .0006253
INCLINATION    = 51.6327
RA_OF_ASC_NODE = 307.8415
ARG_OF_PERICENTER = 268.9169
MEAN_ANOMALY   = 91.1103

EPHEMERIS_TYPE = 0
CLASSIFICATION_TYPE = U
NORAD_CAT_ID   = 67796
ELEMENT_SET_NO = 999
REV_AT_EPOCH   = 56020
BSTAR          = .23534E-3
MEAN_MOTION_DOT = .12431E-3
MEAN_MOTION_DDOT = 0

CCSDS_OMM_VERS = 2.0
CREATION_DATE  = 
ORIGINATOR     = 

OBJECT_NAME    = PROGRESS-MS 33
OBJECT_ID      = 2026-058A
CENTER_NAME    = EARTH
REF_FRAME      = TEME
TIME_SYSTEM    = UTC
MEAN_ELEMENT_THEORY = SGP/SGP4

EPOCH          = 2026-04-03T21:00:58.615488
MEAN_MOTION    = 15.48754008
ECCENTRICITY   = .0006253
INCLINATION    = 51.6327
RA_OF_ASC_NODE = 307.8415
ARG_OF_PERICENTER = 268.9169
MEAN_ANOMALY   = 91.1103

EPHEMERIS_TYPE = 0
CLASSIFICATION_TYPE = U
NORAD_CAT_ID   = 68319
ELEMENT_SET_NO = 999
REV_AT_EPOCH   = 171
BSTAR          = .23534E-3
MEAN_MOTION_DOT = .12431E-3
MEAN_MOTION_DDOT = 0

